OBJECT_NAME,OBJECT_ID,EPOCH,MEAN_MOTION,ECCENTRICITY,INCLINATION,RA_OF_ASC_NODE,ARG_OF_PERICENTER,MEAN_ANOMALY,EPHEMERIS_TYPE,CLASSIFICATION_TYPE,NORAD_CAT_ID,ELEMENT_SET_NO,REV_AT_EPOCH,BSTAR,MEAN_MOTION_DOT,MEAN_MOTION_DDOT
STARLINK-36672,2026-077N,2026-06-19T04:33:02.306592,15.33456339,.00016107,97.2847,41.4133,139.3043,220.8320,0,U,68674,999,1071,.48909837E-3,.15754E-3,0
STARLINK-36669,2026-077P,2026-06-19T04:29:07.747872,15.33445298,.00017803,97.2849,41.4184,74.5050,285.6389,0,U,68675,999,1071,.32893482E-3,.10559E-3,0
STARLINK-37312,2026-077Q,2026-06-19T04:09:32.484096,15.33466490,.00017063,97.2850,41.4378,92.6169,267.5269,0,U,68676,999,1071,.55421026E-3,.17872E-3,0
STARLINK-36168,2026-077R,2026-06-19T04:21:18.684000,15.33461592,.0002063,97.2849,41.4241,89.6860,270.4619,0,U,68677,999,1071,.49988036E-3,.16106E-3,0
STARLINK-37122,2026-077S,2026-06-19T04:17:22.750656,15.33452006,.00013584,97.2829,41.4299,106.8286,253.3106,0,U,68678,999,1071,.43853502E-3,.14112E-3,0
STARLINK-37310,2026-077T,2026-06-19T04:13:30.102240,15.33438606,.00019071,97.2845,41.4325,89.8994,270.2468,0,U,68679,999,1071,.86869441E-3,.28069E-3,0
STARLINK-37306,2026-077U,2026-06-19T05:35:40.869024,15.33450145,.00009871,97.2856,41.5094,100.9799,259.1555,0,U,68680,999,1072,.46264296E-3,.14893E-3,0
STARLINK-37307,2026-077V,2026-06-19T02:31:39.738720,15.33452237,.00010571,97.2859,41.3771,100.1972,259.9390,0,U,68681,999,1070,.56701279E-3,.18279E-3,0
STARLINK-37300,2026-077W,2026-06-19T05:20:02.920128,15.33461217,.00011618,97.2850,41.5245,85.4444,274.6931,0,U,68682,999,1072,.48447809E-3,.15606E-3,0
STARLINK-37304,2026-077X,2026-06-19T05:23:56.163840,15.33458100,.00010606,97.2835,41.5190,90.4215,269.7149,0,U,68683,999,1072,.56822772E-3,.18322E-3,0
STARLINK-37287,2026-077Y,2026-06-19T05:27:51.229728,15.33454711,.00011065,97.2850,41.5172,89.3066,270.8303,0,U,68684,999,1072,.5061328E-3,.16305E-3,0
STARLINK-36278,2026-077Z,2026-06-19T06:00:02.000160,15.49170037,.00017215,97.2851,44.0789,105.6046,242.5806,0,U,68685,999,594,.52684617E-4,.2774E-4,0
STARLINK-37213,2026-077AA,2026-06-19T02:23:49.886880,15.33454859,.00012746,97.2854,41.3841,103.0324,257.1061,0,U,68686,999,1070,.51013557E-3,.16435E-3,0
HJS-8A,2026-078A,2026-06-19T07:04:47.087616,13.24413797,.00016009,86.5007,281.7339,94.3651,265.7666,0,U,68687,999,925,.63638383E-4,.42E-6,0
CYGNUS NG-24,2026-079A,2026-06-19T01:26:30.738336,15.49309015,.00046526,51.6331,290.8234,203.3119,156.7659,0,U,68689,999,57197,.16988244E-3,.9022E-4,0
JILIN GAOFEN OBJECT A,2026-080A,2026-06-16T02:11:15.139680,15.08931289,.00136159,97.6623,242.6115,71.6758,288.5951,0,U,68691,999,949,.34209599E-3,.5345E-4,0
JILIN GAOFEN OBJECT B,2026-080B,2026-06-19T06:06:38.886336,15.08870188,.00172264,97.6593,245.7963,43.5296,316.7289,0,U,68692,999,997,.23757057E-3,.369E-4,0
JILIN GAOFEN OBJECT C,2026-080C,2026-06-17T17:56:16.495296,15.08932290,.00145233,97.6602,244.2556,50.0267,310.2235,0,U,68693,999,974,.30575048E-3,.4771E-4,0
JILIN GAOFEN OBJECT D,2026-080D,2026-06-19T06:04:20.442432,15.08728259,.00189061,97.6656,245.8524,54.1786,306.1195,0,U,68694,999,995,.23439227E-3,.3628E-4,0
JILIN GAOFEN OBJECT E,2026-080E,2026-06-19T07:20:35.359584,15.09015112,.00146732,97.6635,245.9206,63.8447,296.4289,0,U,68695,999,994,.28423833E-3,.4441E-4,0
JILIN GAOFEN OBJECT F,2026-080F,2026-06-19T07:18:16.544160,15.08977811,.00156851,97.6606,245.8985,69.1679,291.1228,0,U,68696,999,994,.29478144E-3,.4605E-4,0
JILIN GAOFEN OBJECT G,2026-080G,2026-06-19T06:57:55.067616,15.08965538,.00156599,97.6655,245.9540,62.9802,297.3023,0,U,68697,999,994,.31532681E-3,.4929E-4,0
JILIN GAOFEN OBJECT H,2026-080H,2026-06-15T21:45:43.193952,15.10218071,.00165668,97.6645,242.5687,74.3010,286.0046,0,U,68698,999,943,.31747997E-3,.514E-4,0
STARLINK-37358,2026-081A,2026-06-19T00:42:40.188384,15.34409730,.00012473,53.1597,283.0161,91.5990,268.5155,0,U,68699,999,1026,.59304133E-3,.19719E-3,0
STARLINK-37334,2026-081B,2026-06-19T00:39:38.524608,15.34394837,.00012767,53.1591,283.0014,69.1675,290.9464,0,U,68700,999,1026,.21485975E-3,.6889E-4,0
STARLINK-36955,2026-081C,2026-06-19T00:36:36.561024,15.34393630,.0002046,53.1581,282.9873,80.7975,279.3259,0,U,68701,999,1026,.32947471E-3,.10769E-3,0
STARLINK-36275,2026-081D,2026-06-19T06:48:46.096704,15.34402181,.00020954,53.1574,281.7708,81.7659,278.3581,0,U,68702,999,1030,.70239875E-3,.23432E-3,0
STARLINK-36271,2026-081E,2026-06-19T06:45:44.406144,15.34402175,.0001761,53.1575,281.7460,76.6937,283.4262,0,U,68703,999,1030,.69451203E-3,.23163E-3,0
STARLINK-37356,2026-081F,2026-06-19T00:27:31.454784,15.34384938,.00021849,53.1581,282.9501,86.4447,273.6806,0,U,68704,999,1026,.75386315E-3,.25168E-3,0
STARLINK-35369,2026-081G,2026-06-19T06:00:02.000160,15.34363480,.00009839,53.1583,281.8466,99.6850,108.2519,0,U,68705,999,590,.15363712E-2,.51831E-3,0
