
CYGNUS NG-24
1 68689U 26079A   26170.06007799  .00009022  00000+0  16988-3 0  9992
2 68689  51.6331 290.8234 0004652 203.3119 156.7659 15.49309015571977

HJS-8A
1 68687U 26078A   26170.29498944  .00000042  00000+0  63638-4 0  9998
2 68687  86.5007 281.7339 0001600  94.3651 265.7666 13.24413797  9256

JILIN GAOFEN OBJECT A
1 68691U 26080A   26167.09114745  .00005345  00000+0  34210-3 0  9998
2 68691  97.6623 242.6115 0013615  71.6758 288.5951 15.08931289  9492

JILIN GAOFEN OBJECT B
1 68692U 26080B   26170.25461674  .00003690  00000+0  23757-3 0  9992
2 68692  97.6593 245.7963 0017226  43.5296 316.7289 15.08870188  9972

JILIN GAOFEN OBJECT C
1 68693U 26080C   26168.74741314  .00004771  00000+0  30575-3 0  9993
2 68693  97.6602 244.2556 0014523  50.0267 310.2235 15.08932290  9742

JILIN GAOFEN OBJECT D
1 68694U 26080D   26170.25301438  .00003628  00000+0  23439-3 0  9993
2 68694  97.6656 245.8524 0018906  54.1786 306.1195 15.08728259  9954

JILIN GAOFEN OBJECT E
1 68695U 26080E   26170.30596481  .00004441  00000+0  28424-3 0  9997
2 68695  97.6635 245.9206 0014673  63.8447 296.4289 15.09015112  9940

JILIN GAOFEN OBJECT F
1 68696U 26080F   26170.30435815  .00004605  00000+0  29478-3 0  9993
2 68696  97.6606 245.8985 0015685  69.1679 291.1228 15.08977811  9949

JILIN GAOFEN OBJECT G
1 68697U 26080G   26170.29022069  .00004929  00000+0  31533-3 0  9999
2 68697  97.6655 245.9540 0015659  62.9802 297.3023 15.08965538  9946

JILIN GAOFEN OBJECT H
1 68698U 26080H   26166.90674993  .00005140  00000+0  31748-3 0  9996
2 68698  97.6645 242.5687 0016566  74.3010 286.0046 15.10218071  9437

STARLINK-35369
1 68705U 26081G   26170.25002315  .00051831  00000+0  15364-2 0  9995
2 68705  53.1583 281.8466 0000983  99.6850 108.2519 15.34363480  5902

STARLINK-36168
1 68677U 26077R   26170.18146625  .00016106  00000+0  49988-3 0  9999
2 68677  97.2849  41.4241 0002063  89.6860 270.4619 15.33461592 10716

STARLINK-36271
1 68703U 26081E   26170.28176396  .00023163  00000+0  69451-3 0  9991
2 68703  53.1575 281.7460 0001761  76.6937 283.4262 15.34402175 10306

STARLINK-36275
1 68702U 26081D   26170.28386686  .00023432  00000+0  70240-3 0  9992
2 68702  53.1574 281.7708 0002095  81.7659 278.3581 15.34402181 10302

STARLINK-36278
1 68685U 26077Z   26170.25002315  .00002774  00000+0  52685-4 0  9998
2 68685  97.2851  44.0789 0001721 105.6046 242.5806 15.49170037  5944

STARLINK-36669
1 68675U 26077P   26170.18689523  .00010559  00000+0  32893-3 0  9999
2 68675  97.2849  41.4184 0001780  74.5050 285.6389 15.33445298 10716

STARLINK-36672
1 68674U 26077N   26170.18961003  .00015754  00000+0  48910-3 0  9993
2 68674  97.2847  41.4133 0001610 139.3043 220.8320 15.33456339 10715

STARLINK-36955
1 68701U 26081C   26170.02542316  .00010769  00000+0  32947-3 0  9998
2 68701  53.1581 282.9873 0002046  80.7975 279.3259 15.34393630 10267

STARLINK-37122
1 68678U 26077S   26170.17873554  .00014112  00000+0  43854-3 0  9998
2 68678  97.2829  41.4299 0001358 106.8286 253.3106 15.33452006 10719

STARLINK-37213
1 68686U 26077AA  26170.09988295  .00016435  00000+0  51014-3 0  9994
2 68686  97.2854  41.3841 0001274 103.0324 257.1061 15.33454859 10706

STARLINK-37287
1 68684U 26077Y   26170.22767627  .00016305  00000+0  50613-3 0  9991
2 68684  97.2850  41.5172 0001106  89.3066 270.8303 15.33454711 10722

STARLINK-37300
1 68682U 26077W   26170.22225602  .00015606  00000+0  48448-3 0  9997
2 68682  97.2850  41.5245 0001161  85.4444 274.6931 15.33461217 10727

STARLINK-37304
1 68683U 26077X   26170.22495560  .00018322  00000+0  56823-3 0  9994
2 68683  97.2835  41.5190 0001060  90.4215 269.7149 15.33458100 10723

STARLINK-37306
1 68680U 26077U   26170.23311191  .00014893  00000+0  46264-3 0  9996
2 68680  97.2856  41.5094 0000987 100.9799 259.1555 15.33450145 10722

STARLINK-37307
1 68681U 26077V   26170.10532105  .00018279  00000+0  56701-3 0  9992
2 68681  97.2859  41.3771 0001057 100.1972 259.9390 15.33452237 10707

STARLINK-37310
1 68679U 26077T   26170.17604285  .00028069  00000+0  86869-3 0  9991
2 68679  97.2845  41.4325 0001907  89.8994 270.2468 15.33438606 10713

STARLINK-37312
1 68676U 26077Q   26170.17329264  .00017872  00000+0  55421-3 0  9999
2 68676  97.2850  41.4378 0001706  92.6169 267.5269 15.33466490 10717

STARLINK-37334
1 68700U 26081B   26170.02752922  .00006889  00000+0  21486-3 0  9997
2 68700  53.1591 283.0014 0001276  69.1675 290.9464 15.34394837 10265

STARLINK-37356
1 68704U 26081F   26170.01911406  .00025168  00000+0  75386-3 0  9993
2 68704  53.1581 282.9501 0002184  86.4447 273.6806 15.34384938 10264

STARLINK-37358
1 68699U 26081A   26170.02963181  .00019719  00000+0  59304-3 0  9991
2 68699  53.1597 283.0161 0001247  91.5990 268.5155 15.34409730 10265
